LANDSAT 9               
1 49260U 21088A   24050.44170957  .00000823  00000+0  19260-3 0  9991
2 49260  98.2006 122.0071 0001162 109.6523 250.4801 14.57136572127402
